[{"OBJECT_NAME":"STARLINK-30078","OBJECT_ID":"2023-079U","EPOCH":"2026-03-09T23:38:59.292672","MEAN_MOTION":15.27586046,"ECCENTRICITY":0.00027009,"INCLINATION":43.0071,"RA_OF_ASC_NODE":57.6934,"ARG_OF_PERICENTER":259.8532,"MEAN_ANOMALY":100.2015,"EPHEMERIS_TYPE":0,"CLASSIFICATION_TYPE":"U","NORAD_CAT_ID":56841,"ELEMENT_SET_NO":999,"REV_AT_EPOCH":15349,"BSTAR":0.00012679311,"MEAN_MOTION_DOT":3.229e-5,"MEAN_MOTION_DDOT":0},{"OBJECT_NAME":"CZ-6A DEB","OBJECT_ID":"2022-151AJB","EPOCH":"2026-02-27T14:06:27.470880","MEAN_MOTION":15.13235807,"ECCENTRICITY":0.00651829,"INCLINATION":98.7617,"RA_OF_ASC_NODE":191.4844,"ARG_OF_PERICENTER":85.1472,"MEAN_ANOMALY":275.7194,"EPHEMERIS_TYPE":0,"CLASSIFICATION_TYPE":"U","NORAD_CAT_ID":58433,"ELEMENT_SET_NO":999,"REV_AT_EPOCH":15167,"BSTAR":0.0027921214,"MEAN_MOTION_DOT":0.00052525,"MEAN_MOTION_DDOT":0}]
